QIANFAN-60              
1 62790U 25016F   25272.86448894  .00000063  00000+0  77485-4 0  9990
2 62790  88.9733 110.7252 0014836 191.1230 168.9596 13.52524265 37257
QIANFAN-61              
1 62791U 25016G   25272.89633038  .00000062  00000+0  78126-4 0  9992
2 62791  88.9799 110.8344 0014150 189.7817 170.3061 13.50972445 37277
QIANFAN-62              
1 62792U 25016H   25272.90050189  .00000039  00000+0  42477-4 0  9999
2 62792  88.9745 110.7422 0015527 190.7371 169.3451 13.50966339 37266
QIANFAN-63              
1 62793U 25016J   25272.85105814  .00000083  00000+0  10920-3 0  9996
2 62793  88.9753 110.6938 0015429 196.4240 163.6413 13.50969258 37297
QIANFAN-64              
1 62794U 25016K   25272.89222081  .00000066  00000+0  83332-4 0  9996
2 62794  88.9739 110.6736 0013556 188.0697 172.0239 13.50971004 37292
QIANFAN-65              
1 62795U 25016L   25272.88811774  .00000086  00000+0  11455-3 0  9997
2 62795  88.9735 110.7027 0013337 189.8509 170.2383 13.50970062 37272
QIANFAN-66              
1 62796U 25016M   25272.84292205  .00000077  00000+0  10076-3 0  9994
2 62796  88.9754 110.6632 0014593 185.9782 174.1198 13.50965172 37318
QIANFAN-67              
1 62797U 25016N   25272.84691186  .00000072  00000+0  93407-4 0  9991
2 62797  88.9744 110.6954 0014357 193.0321 167.0461 13.50966704 37284
QIANFAN-68              
1 62798U 25016P   25266.46913683  .00000070  00000+0  89224-4 0  9992
2 62798  88.9758 111.3962 0013928 210.6591 149.3747 13.50984556 36403
QIANFAN-69              
1 62799U 25016Q   25272.85519959  .00000052  00000+0  61790-4 0  9999
2 62799  88.9728 110.6224 0015169 192.6341 167.4433 13.50966671 37306
QIANFAN-70              
1 62800U 25016R   25272.87157491  .00000077  00000+0  10028-3 0  9997
2 62800  88.9748 110.7436 0015045 182.5460 177.5617 13.50971386 37260
QIANFAN-71              
1 62801U 25016S   25272.86754510  .00000069  00000+0  87806-4 0  9992
2 62801  88.9743 110.7280 0014987 196.2767 163.7904 13.50970374 37261
QIANFAN-72              
1 62802U 25016T   25272.80794402  .00000096  00000+0  13282-3 0  9997
2 62802  88.9732 110.7544 0018319 204.8627 155.1643 13.49486692 37243
QIANFAN-73              
1 63159U 25046A   25272.83685684  .00000179  00000+0  25926-3 0  9990
2 63159  88.9819 327.6665 0013865 345.5152  14.5599 13.50977288 37432
QIANFAN-74              
1 63160U 25046B   25270.22805291  .00000088  00000+0  11848-3 0  9998
2 63160  88.9824 327.8233 0002256 105.7462 254.3938 13.50969278 37144
QIANFAN-75              
1 63161U 25046C   25271.54893772  .00000194  00000+0  28180-3 0  9991
2 63161  88.9822 327.9199 0015134 351.9954   8.0953 13.50980526 37190
QIANFAN-76              
1 63162U 25046D   25272.87799086  .00000069  00000+0  88544-4 0  9994
2 63162  88.9822 327.7641 0012629 350.1116   9.9784 13.50974140 37386
QIANFAN-77              
1 63163U 25046E   25272.86162600  .00000543  00000+0  38602-3 0  9996
2 63163  88.9818 326.3797 0012782 317.0662  42.9516 13.96056601 38145
QIANFAN-78              
1 63164U 25046F   25270.17873922  .00000155  00000+0  22125-3 0  9997
2 63164  88.9825 327.9067 0014334 359.8558   0.2586 13.50978582 37092
QIANFAN-79              
1 63165U 25046G   25272.79969929  .00000196  00000+0  28462-3 0  9996
2 63165  88.9825 327.7416 0013707 350.3248   9.7637 13.50969037 37393
QIANFAN-80              
1 63166U 25046H   25272.89034447  .00000216  00000+0  31551-3 0  9992
2 63166  88.9822 327.4412 0012866 355.3251   4.7778 13.50969736 37564
QIANFAN-81              
1 63167U 25046J   25272.86967440  .00000175  00000+0  25282-3 0  9996
2 63167  88.9822 327.5116 0013425 342.2589  17.8091 13.50981548 37511
QIANFAN-82              
1 63168U 25046K   25272.82859512  .00000200  00000+0  29167-3 0  9998
2 63168  88.9822 327.5594 0011888 352.2562   7.8404 13.50969506 37499
QIANFAN-83              
1 63169U 25046L   25272.86414447  .00000267  00000+0  33127-3 0  9991
2 63169  88.9819 327.4771 0012753 339.7819  20.2832 13.61956795 37547
QIANFAN-84              
1 63170U 25046M   25272.85712270  .00000165  00000+0  23695-3 0  9993
2 63170  88.9822 327.6896 0014676 346.3544  13.7208 13.50982384 37420
QIANFAN-85              
1 63171U 25046N   25272.85329116  .00000239  00000+0  35104-3 0  9997
2 63171  88.9821 327.5620 0012192 350.7184   9.3740 13.50979959 37497
QIANFAN-86              
1 63172U 25046P   25270.04706391  .00000201  00000+0  29286-3 0  9994
2 63172  88.9828 327.7109 0010538   5.8456 354.2816 13.50978981 37198
QIANFAN-87              
1 63173U 25046Q   25272.83273993  .00000193  00000+0  28030-3 0  9997
2 63173  88.9820 327.5388 0010768 351.1286   8.9673 13.50975838 37508
QIANFAN-88              
1 63174U 25046R   25272.84919370  .00000217  00000+0  31810-3 0  9992
2 63174  88.9822 327.4899 0011447 359.3060   0.8073 13.50969223 37531
QIANFAN-89              
1 63175U 25046S   25272.81198326  .00000225  00000+0  32960-3 0  9996
2 63175  88.9822 327.6827 0015353 346.6568  13.4175 13.50970796 37425
QIANFAN-90              
1 63176U 25046T   25272.84073376  .00000209  00000+0  30531-3 0  9991
2 63176  88.9823 327.6521 0012267 346.3689  13.7129 13.50982798 37449
